IONOSFERA-M 3           
1 64876U 25155A   26013.31847087  .00000057  00000+0  45823-4 0  9996
2 64876  98.5826 339.2978 0000893   5.5813 354.5374 14.21450306 24401
IONOSFERA-M 4           
1 64877U 25155B   26013.28312152  .00000063  00000+0  48254-4 0  9991
2 64877  98.5824 339.1825 0000642  51.4086 308.7149 14.21451596 24395
INNOSAT 16 (RS92S7)     
1 64878U 25155C   26013.28945524  .00005593  00000+0  23907-3 0  9997
2 64878  97.4368 341.3405 0011622  21.4929 338.6794 15.23197685 57077
GEOSCAN 6 (RS92S6)      
1 64879U 25155D   26013.28309138  .00009304  00000+0  36021-3 0  9998
2 64879  97.4369 341.8252 0008976  21.3840 338.7771 15.26363557 57109
GEOSCAN 1 (RS92S1)      
1 64880U 25155E   26013.26679024  .00009846  00000+0  37740-3 0  9992
2 64880  97.4369 341.8526 0008931  22.2038 337.9585 15.26682997 57101
239ALFEROV (RS61S)      
1 64881U 25155F   26013.27391589  .00011990  00000+0  44422-3 0  9999
2 64881  97.4376 342.0195 0008708  23.6101 336.5536 15.27756315 57112
2025-155G               
1 64882U 25155G   26013.28384386  .00007978  00000+0  31150-3 0  9993
2 64882  97.4391 341.8561 0008431  22.3413 337.8191 15.26134410 57104
2025-155H               
1 64883U 25155H   26013.28407305  .00007971  00000+0  31136-3 0  9998
2 64883  97.4387 341.8462 0008310  21.1469 339.0111 15.26121620 57109
2025-155J               
1 64884U 25155J   26013.28357104  .00008310  00000+0  32438-3 0  9994
2 64884  97.4379 341.8519 0008624  16.3162 343.8353 15.26130735 57106
2025-155K               
1 64885U 25155K   26013.29394756  .00020744  00000+0  69462-3 0  9992
2 64885  97.4329 342.3467 0007980  13.6285 346.5170 15.30945362 57146
2025-155L               
1 64886U 25155L   26013.28024024  .00021591  00000+0  71025-3 0  9999
2 64886  97.4317 342.3539 0008497  19.5367 340.6198 15.31505969 57145
2025-155M               
1 64887U 25155M   26013.28118261  .00017560  00000+0  60423-3 0  9998
2 64887  97.4342 342.2470 0008173  16.3009 343.8493 15.30094727 57132
2025-155N               
1 64888U 25155N   26013.27567147  .00022044  00000+0  72398-3 0  9996
2 64888  97.4323 342.3763 0007840  16.9281 343.2220 15.31559515 57141
2025-155P               
1 64889U 25155P   26013.28671732  .00004648  00000+0  19123-3 0  9991
2 64889  97.4396 341.7091 0007958  18.4015 341.7509 15.24612272 57090
GEOSCAN 2 (RS92S2)      
1 64890U 25155Q   26013.29030021  .00009400  00000+0  35711-3 0  9996
2 64890  97.4367 341.9617 0007729  11.6564 348.4852 15.27000312 57113
GEOSCAN 5 (RS92S5)      
1 64891U 25155R   26013.29647058  .00011992  00000+0  43962-3 0  9997
2 64891  97.4370 342.1170 0007803  31.8753 328.2957 15.28112876 57125
GEOSCAN 4 (RS92S4)      
1 64892U 25155S   26013.29209305  .00012142  00000+0  44407-3 0  9990
2 64892  97.4372 342.1273 0007855  32.4598 327.7123 15.28185496 57120
GEOSCAN 3 (RS92S3)      
1 64893U 25155T   26013.24497922  .00014407  00000+0  51171-3 0  9992
2 64893  97.4366 342.1820 0007779  35.9663 324.2099 15.29107438 57123
INNOSAT 3 (RS92S0)      
1 64894U 25155U   26013.29521358  .00023419  00000+0  75006-3 0  9995
2 64894  97.4346 342.5538 0007704  42.8754 317.3087 15.32355561 57157
2025-155V               
1 64895U 25155V   26013.15259992  .00007534  00000+0  29438-3 0  9991
2 64895  97.4388 341.7166 0008249  22.3781 337.7816 15.26132544 57074
SKYCRAFT-4C             
1 64896U 25154H   26013.31333760  .00003069  00000+0  29263-3 0  9990
2 64896  97.6904  80.7526 0006470  64.6641 295.5249 14.94061174176010
SKYCRAFT-4A             
1 64897U 25154J   26013.14650149  .00001817  00000+0  17438-3 0  9995
2 64897  97.6924  80.6706 0006527  66.7587 293.4320 14.94303462 24217
SKYKRAFT-4D             
1 64898U 25154K   26013.12294839  .00005290  00000+0  49932-3 0  9997
2 64898  97.6894  80.5095 0005623  62.6744 297.5048 14.94152353 24123
MICROCARB               
1 64899U 25156A   26013.18956660  .00000522  00000+0  90688-4 0  9991
2 64899  97.9985  93.0256 0017282  50.9786 309.2957 14.72116672 25161
CO3D 3                  
1 64900U 25156B   26013.30661525 -.00001137  00000+0 -49438-4 0  9993
2 64900  97.4335  94.2212 0001166   9.1328 350.9928 15.20198677 26009
CO3D 4                  
1 64901U 25156C   26013.30677972  .00005017  00000+0  23472-3 0  9995
2 64901  97.4338  94.2218 0001524  97.0555 263.0854 15.20198869 26000
CO3D 2                  
1 64902U 25156D   26012.48332367  .00034885  00000+0  99413-3 0  9993
2 64902  97.6496  93.8399 0163681 165.7098 194.8852 15.23642606 25870
CO3D 1                  
1 64903U 25156E   26013.40522764  .00004127  00000+0  19370-3 0  9999
2 64903  97.4339  94.2175 0000664  23.1675 336.9590 15.20191376 26016
STARLINK-34647          
1 64904U 25157A   26013.02139669  .00021140  00000+0  53703-3 0  9999
2 64904  53.1581 246.1717 0001135  77.3104 282.8027 15.39619368 27568
STARLINK-34273          
1 64905U 25157B   26013.05379903  .00036648  00000+0  92165-3 0  9994
2 64905  53.1577 245.6590 0001314  66.9080 293.2064 15.39624232 27599
STARLINK-34713          
1 64906U 25157C   26013.07238341  .00023024  00000+0  58392-3 0  9995
2 64906  53.1576 245.7758 0001173 109.7780 250.3352 15.39616153 27533
STARLINK-34712          
1 64907U 25157D   26013.06309072  .00036289  00000+0  91281-3 0  9996
2 64907  53.1591 245.7160 0001365  76.7017 283.4140 15.39622756 27580
STARLINK-34702          
1 64908U 25157E   26012.91004260  .00024067  00000+0  60967-3 0  9999
2 64908  53.1580 246.1795 0001261 106.7703 253.3441 15.39624222 27567
STARLINK-34687          
1 64909U 25157F   26012.90075884  .00024576  00000+0  62239-3 0  9998
2 64909  53.1585 246.1225 0001725 100.2489 259.8711 15.39620730 27512
STARLINK-34642          
1 64910U 25157G   26013.02604415  .00016010  00000+0  40953-3 0  9995
2 64910  53.1589 246.1984 0001373  72.3637 287.7518 15.39609257 27575
STARLINK-34718          
1 64911U 25157H   26013.01674982  .00030317  00000+0  76467-3 0  9996
2 64911  53.1577 246.1392 0001121  91.6812 268.4321 15.39628679 27573
STARLINK-34711          
1 64912U 25157J   26013.07699613  .00080334  00000+0  19879-2 0  9998
2 64912  53.1578 245.8060 0001210 101.4672 258.6469 15.39762438 27583
STARLINK-34659          
1 64913U 25157K   26012.93791125  .00027984  00000+0  70617-3 0  9994
2 64913  53.1562 246.3562 0001217 104.2937 255.8203 15.39656078 27512
STARLINK-34571          
1 64914U 25157L   26013.05844243  .00025322  00000+0  64065-3 0  9993
2 64914  53.1585 245.6855 0001232  84.8701 275.2444 15.39632988 27533
STARLINK-34636          
1 64915U 25157M   26013.04915469  .00015767  00000+0  40327-3 0  9999
2 64915  53.1582 245.6256 0001070  78.3002 281.8123 15.39625939 27588
STARLINK-34695          
1 64916U 25157N   26012.91468066  .00043951  00000+0  11016-2 0  9999
2 64916  53.1585 246.2080 0001043  79.5798 280.5325 15.39643853 27562
STARLINK-34653          
1 64917U 25157P   26013.03522622  .00034914  00000+0  87845-3 0  9996
2 64917  53.1587 245.5375 0001030  99.6615 260.4506 15.39633662 27533
STARLINK-34611          
1 64918U 25157Q   26013.33334491 -.00009966  00000+0 -23936-3 0  9997
2 64918  53.1569 244.7014 0001381  96.3723 191.8837 15.39633595  5803
STARLINK-34599          
1 64919U 25157R   26013.04020966  .00016991  00000+0  43388-3 0  9992
2 64919  53.1580 245.5613 0001185  76.8977 283.2161 15.39615420 27589
STARLINK-34069          
1 64920U 25157S   26013.33334491 -.00008440  00000+0 -20120-3 0  9998
2 64920  53.1570 244.6499 0001419  76.3325 237.7118 15.39625344  5795
STARLINK-34699          
1 64921U 25157T   26013.33334491 -.00007459  00000+0 -17659-3 0  9991
2 64921  53.1567 244.5986 0001477 108.6833 231.0847 15.39630886  5905
STARLINK-34700          
1 64922U 25157U   26013.33334491 -.00004870  00000+0 -11183-3 0  9992
2 64922  53.1570 244.4949 0001219  94.2293 297.0576 15.39623610  5911
STARLINK-34643          
1 64923U 25157V   26013.33334491 -.00002982  00000+0 -64552-4 0  9994
2 64923  53.1572 244.3909 0001203 113.4741 329.2741 15.39634531  5853
STARLINK-34199          
1 64924U 25157W   26013.06335995 -.00088854  00000+0 -22423-2 0  9996
2 64924  53.1572 245.7141 0002281  42.2081 317.9099 15.39548883 27533
STARLINK-34579          
1 64925U 25157X   26013.33334491 -.00004787  00000+0 -10984-3 0  9990
2 64925  53.1570 244.5459 0001459  87.7926 277.7308 15.39599220  5914
STARLINK-34543          
1 64926U 25157Y   26013.03556764  .00023692  00000+0  60047-3 0  9996
2 64926  53.1577 245.5381 0001223  75.6057 284.5084 15.39618847 27533
STARLINK-34661          
1 64927U 25157Z   26012.96541530  .04599761  00000+0  84782-1 0  9992
2 64927  53.1596 245.8071 0024613 290.5353  69.3013 15.43720792 27291
STARLINK-34248          
1 64928U 25157AA  26013.24888094  .00030114  00000+0  75940-3 0  9990
2 64928  53.1577 244.7368 0001175  83.0778 277.0360 15.39637977 27618
STARLINK-34290          
1 64929U 25157AB  26013.04949041  .00013087  00000+0  33657-3 0  9998
2 64929  53.1566 245.6247 0001151  78.2473 281.8661 15.39622808 27585
STARLINK-34220          
1 64930U 25157AC  26012.63678893  .00025469  00000+0  64480-3 0  9993
2 64930  53.1586 247.3093 0001369 108.4320 251.6834 15.39609992 27413
STARLINK-34715          
1 64931U 25157AD  26013.33334491 -.00005758  00000+0 -13402-3 0  9994
2 64931  53.1579 244.2370 0001150  72.3839  87.5558 15.39635372  5902
STARLINK-34705          
1 64932U 25158A   26013.26971692  .00006837  00000+0  47754-3 0  9992
2 64932  97.6026 239.4055 0002474  74.9116 285.2384 15.05652459 27013
STARLINK-34737          
1 64933U 25158B   26013.19216168  .00004337  00000+0  30463-3 0  9997
2 64933  97.6023 239.3567 0001917  85.2533 274.8913 15.05648505 27005
STARLINK-34775          
1 64934U 25158C   26013.18939518  .00003582  00000+0  25234-3 0  9999
2 64934  97.6023 239.3677 0002654  74.7136 285.4384 15.05648059 27003
